{
  "type": "FeatureCollection",
  "features": [
    {
      "type": "Feature",
      "properties": {
        "norad_id": 40069,
        "name": "METEOR-M 2",
        "group": "weather",
        "lat": 76.98806656769713,
        "lon": -69.48807556521076,
        "alt_km": 814.601639159524,
        "timestamp": "2025-12-19T10:50:00.834399+00:00",
        "meta_object_name": "METEOR-M 2",
        "meta_object_id": "2014-037A",
        "meta_epoch": "2025-12-18T22:37:53.878944",
        "meta_mean_motion": 14.2138848,
        "meta_eccentricity": 0.00052908,
        "meta_inclination": 98.4897,
        "meta_ra_of_asc_node": 330.2897,
        "meta_arg_of_pericenter": 190.096,
        "meta_mean_anomaly": 170.0113,
        "meta_ephemeris_type": 0,
        "meta_classification_type": "U",
        "meta_norad_cat_id": 40069,
        "meta_element_set_no": 999,
        "meta_rev_at_epoch": 59371,
        "meta_bstar": 4.2895813e-05,
        "meta_mean_motion_dot": 5.2e-07,
        "meta_mean_motion_ddot": 0,
        "tle_line1": "1 40069U 14037A   25352.94298471  .00000052  00000+0  42896-4 0  9994",
        "tle_line2": "2 40069  98.4897 330.2897 0005290 190.0960 170.0113 14.21388480593716"
      },
      "geometry": {
        "type": "Point",
        "coordinates": [
          -69.48807556521076,
          76.98806656769713
        ]
      }
    },
    {
      "type": "Feature",
      "properties": {
        "norad_id": 40267,
        "name": "HIMAWARI-8",
        "group": "weather",
        "lat": 0.0033071000204060756,
        "lon": 31.471797346151625,
        "alt_km": 35786.68088392257,
        "timestamp": "2025-12-19T10:50:00.834425+00:00",
        "meta_object_name": "HIMAWARI-8",
        "meta_object_id": "2014-060A",
        "meta_epoch": "2025-12-18T22:31:31.578816",
        "meta_mean_motion": 1.002717,
        "meta_eccentricity": 8.519e-05,
        "meta_inclination": 0.0123,
        "meta_ra_of_asc_node": 91.5186,
        "meta_arg_of_pericenter": 201.9024,
        "meta_mean_anomaly": 272.9248,
        "meta_ephemeris_type": 0,
        "meta_classification_type": "U",
        "meta_norad_cat_id": 40267,
        "meta_element_set_no": 999,
        "meta_rev_at_epoch": 4095,
        "meta_bstar": 0,
        "meta_mean_motion_dot": -2.5e-06,
        "meta_mean_motion_ddot": 0,
        "tle_line1": "1 40267U 14060A   25352.93855994 -.00000250  00000+0  00000+0 0  9995",
        "tle_line2": "2 40267   0.0123  91.5186 0000851 201.9024 272.9248  1.00271700 40959"
      },
      "geometry": {
        "type": "Point",
        "coordinates": [
          31.471797346151625,
          0.0033071000204060756
        ]
      }
    },
    {
      "type": "Feature",
      "properties": {
        "norad_id": 40367,
        "name": "FENGYUN 2G",
        "group": "weather",
        "lat": -5.169429990904916,
        "lon": -9.832249452792636,
        "alt_km": 35785.57060188349,
        "timestamp": "2025-12-19T10:50:00.834448+00:00",
        "meta_object_name": "FENGYUN 2G",
        "meta_object_id": "2014-090A",
        "meta_epoch": "2025-12-18T18:58:27.282720",
        "meta_mean_motion": 1.00262065,
        "meta_eccentricity": 0.00027475,
        "meta_inclination": 5.183,
        "meta_ra_of_asc_node": 75.0287,
        "meta_arg_of_pericenter": 205.322,
        "meta_mean_anomaly": 191.2511,
        "meta_ephemeris_type": 0,
        "meta_classification_type": "U",
        "meta_norad_cat_id": 40367,
        "meta_element_set_no": 999,
        "meta_rev_at_epoch": 4019,
        "meta_bstar": 0,
        "meta_mean_motion_dot": -2.78e-06,
        "meta_mean_motion_ddot": 0,
        "tle_line1": "1 40367U 14090A   25352.79059355 -.00000278  00000+0  00000+0 0  9990",
        "tle_line2": "2 40367   5.1830  75.0287 0002747 205.3220 191.2511  1.00262065 40198"
      },
      "geometry": {
        "type": "Point",
        "coordinates": [
          -9.832249452792636,
          -5.169429990904916
        ]
      }
    },
    {
      "type": "Feature",
      "properties": {
        "norad_id": 40732,
        "name": "METEOSAT-11 (MSG-4)",
        "group": "weather",
        "lat": -0.4114127558834269,
        "lon": -99.9958395501141,
        "alt_km": 35784.557818086476,
        "timestamp": "2025-12-19T10:50:00.834468+00:00",
        "meta_object_name": "METEOSAT-11 (MSG-4)",
        "meta_object_id": "2015-034A",
        "meta_epoch": "2025-12-18T20:11:15.012672",
        "meta_mean_motion": 1.00269399,
        "meta_eccentricity": 8.622e-05,
        "meta_inclination": 2.7513,
        "meta_ra_of_asc_node": 71.9862,
        "meta_arg_of_pericenter": 135.0917,
        "meta_mean_anomaly": 192.6466,
        "meta_ephemeris_type": 0,
        "meta_classification_type": "U",
        "meta_norad_cat_id": 40732,
        "meta_element_set_no": 999,
        "meta_rev_at_epoch": 540,
        "meta_bstar": 0,
        "meta_mean_motion_dot": 8.4e-07,
        "meta_mean_motion_ddot": 0,
        "tle_line1": "1 40732U 15034A   25352.84114598  .00000084  00000+0  00000+0 0  9996",
        "tle_line2": "2 40732   2.7513  71.9862 0000862 135.0917 192.6466  1.00269399  5403"
      },
      "geometry": {
        "type": "Point",
        "coordinates": [
          -99.9958395501141,
          -0.4114127558834269
        ]
      }
    },
    {
      "type": "Feature",
      "properties": {
        "norad_id": 41105,
        "name": "ELEKTRO-L 2",
        "group": "weather",
        "lat": 1.7443809928315486,
        "lon": -123.615753449238,
        "alt_km": 35774.93407159809,
        "timestamp": "2025-12-19T10:50:00.834487+00:00",
        "meta_object_name": "ELEKTRO-L 2",
        "meta_object_id": "2015-074A",
        "meta_epoch": "2025-12-18T01:14:27.090816",
        "meta_mean_motion": 1.00272597,
        "meta_eccentricity": 0.00035785,
        "meta_inclination": 6.2385,
        "meta_ra_of_asc_node": 72.7657,
        "meta_arg_of_pericenter": 208.6234,
        "meta_mean_anomaly": 169.659,
        "meta_ephemeris_type": 0,
        "meta_classification_type": "U",
        "meta_norad_cat_id": 41105,
        "meta_element_set_no": 999,
        "meta_rev_at_epoch": 3669,
        "meta_bstar": 0,
        "meta_mean_motion_dot": -9.7e-07,
        "meta_mean_motion_ddot": 0,
        "tle_line1": "1 41105U 15074A   25352.05170244 -.00000097  00000+0  00000+0 0  9993",
        "tle_line2": "2 41105   6.2385  72.7657 0003578 208.6234 169.6590  1.00272597 36692"
      },
      "geometry": {
        "type": "Point",
        "coordinates": [
          -123.615753449238,
          1.7443809928315486
        ]
      }
    },
    {
      "type": "Feature",
      "properties": {
        "norad_id": 41752,
        "name": "INSAT-3DR",
        "group": "weather",
        "lat": -0.10144521260191357,
        "lon": -35.08768137331738,
        "alt_km": 35750.44666398124,
        "timestamp": "2025-12-19T10:50:00.834507+00:00",
        "meta_object_name": "INSAT-3DR",
        "meta_object_id": "2016-054A",
        "meta_epoch": "2025-12-18T15:21:37.308096",
        "meta_mean_motion": 1.00271616,
        "meta_eccentricity": 0.00141413,
        "meta_inclination": 0.1065,
        "meta_ra_of_asc_node": 86.5445,
        "meta_arg_of_pericenter": 184.9016,
        "meta_mean_anomaly": 120.4485,
        "meta_ephemeris_type": 0,
        "meta_classification_type": "U",
        "meta_norad_cat_id": 41752,
        "meta_element_set_no": 999,
        "meta_rev_at_epoch": 3400,
        "meta_bstar": 0,
        "meta_mean_motion_dot": -5.2e-07,
        "meta_mean_motion_ddot": 0,
        "tle_line1": "1 41752U 16054A   25352.64001514 -.00000052  00000+0  00000+0 0  9999",
        "tle_line2": "2 41752   0.1065  86.5445 0014141 184.9016 120.4485  1.00271616 34000"
      },
      "geometry": {
        "type": "Point",
        "coordinates": [
          -35.08768137331738,
          -0.10144521260191357
        ]
      }
    },
    {
      "type": "Feature",
      "properties": {
        "norad_id": 41836,
        "name": "HIMAWARI-9",
        "group": "weather",
        "lat": 0.03401057967849092,
        "lon": 31.550185805646578,
        "alt_km": 35782.45018514726,
        "timestamp": "2025-12-19T10:50:00.834536+00:00",
        "meta_object_name": "HIMAWARI-9",
        "meta_object_id": "2016-064A",
        "meta_epoch": "2025-12-18T18:07:09.740640",
        "meta_mean_motion": 1.00269108,
        "meta_eccentricity": 0.00019267,
        "meta_inclination": 0.02,
        "meta_ra_of_asc_node": 341.613,
        "meta_arg_of_pericenter": 353.5172,
        "meta_mean_anomaly": 165.0202,
        "meta_ephemeris_type": 0,
        "meta_classification_type": "U",
        "meta_norad_cat_id": 41836,
        "meta_element_set_no": 999,
        "meta_rev_at_epoch": 3340,
        "meta_bstar": 0,
        "meta_mean_motion_dot": 0,
        "meta_mean_motion_ddot": 0,
        "tle_line1": "1 41836U 16064A   25352.75497385  .00000000  00000+0  00000+0 0  9992",
        "tle_line2": "2 41836   0.0200 341.6130 0001926 353.5172 165.0202  1.00269108 33401"
      },
      "geometry": {
        "type": "Point",
        "coordinates": [
          31.550185805646578,
          0.03401057967849092
        ]
      }
    }
  ]
}